ONEWEB-0553             
1 56055U 23043K   23281.91667824 -.01284058  00000+0 -42960+0 0  9991
2 56055  87.1930  67.1247 0002824  60.5623 301.0235 14.41082090  5699
ONEWEB-0554             
1 56056U 23043L   23281.91667824 -.01203275  00000+0 -41949+0 0  9990
2 56056  87.2005  67.0087 0002607 132.3417  60.2236 14.38800300  5775
ONEWEB-0555             
1 56057U 23043M   23281.91667824 -.01289631  00000+0 -43724+0 0  9994
2 56057  87.1929  67.0457 0003702 110.9889  27.1909 14.40434371  5787
ONEWEB-0557             
1 56058U 23043N   23281.91667824 -.01252207  00000+0 -44026+0 0  9990
2 56058  87.2009  67.0048 0003075 110.7696 130.5566 14.38513664  5633
ONEWEB-0558             
1 56059U 23043P   23281.82831452 -.00000044  00000+0 -13806-3 0  9996
2 56059  87.9189  79.5538 0001841  72.9645 287.1690 13.21825578 28468
ONEWEB-0559             
1 56060U 23043Q   23281.89139471  .00000016  00000+0  62942-5 0  9991
2 56060  87.9189  79.5416 0002436  83.6508 276.4903 13.21827952 28481
ONEWEB-0566             
1 56061U 23043R   23281.88509178  .00000022  00000+0  20697-4 0  9993
2 56061  87.9186  79.5457 0002043  69.1326 291.0026 13.21829142 28465
ONEWEB-0568             
1 56062U 23043S   23281.91667824 -.01254497  00000+0 -40597+0 0  9997
2 56062  87.1937  67.1658 0003831 107.8852  39.0909 14.42646533  5783
